NOAA 15                 
1 25338U 98030A   22314.48866170  .00000179  00000+0  93142-4 0  9992
2 25338  98.6312 342.0309 0009594 227.7360 132.3007 14.26194309274083
DMSP 5D-3 F15 (USA 147) 
1 25991U 99067A   22314.49421133  .00000217  00000+0  13190-3 0  9992
2 25991  99.0636 308.6467 0010803 131.2738  41.1490 14.16596058184469
DMSP 5D-3 F16 (USA 172) 
1 28054U 03048A   22314.48398562  .00000161  00000+0  10912-3 0  9994
2 28054  99.0007 306.1320 0006373 265.1696 247.3705 14.13705194983659
NOAA 18                 
1 28654U 05018A   22314.45413546  .00000209  00000+0  13648-3 0  9998
2 28654  98.9355  24.6762 0013269 279.0209  80.9461 14.12804585900682
METEOSAT-9 (MSG-2)      
1 28912U 05049B   22312.00609578  .00000131  00000+0  00000+0 0  9998
2 28912   6.3414  65.3332 0002173 191.7670 198.0950  1.00278423 61835
EWS-G1 (GOES 13)        
1 29155U 06018A   22314.16138767  .00000047  00000+0  00000+0 0  9997
2 29155   0.9439  94.2852 0006948 137.7148 296.7455  1.00271382 60320
DMSP 5D-3 F17 (USA 191) 
1 29522U 06050A   22314.47022842  .00000171  00000+0  11279-3 0  9993
2 29522  98.7634 326.7714 0009506 200.0808 159.9992 14.14135468826543
FENGYUN 3A              
1 32958U 08026A   22314.17267244  .00000156  00000+0  95131-4 0  9992
2 32958  98.5237 270.9815 0008186 328.9328  31.1364 14.18759540748992
FENGYUN 2E              
1 33463U 08066A   22314.59408499 -.00000194  00000+0  00000+0 0  9992
2 33463   6.2296  64.4325 0000908 250.8314  34.6264  1.00281445 50904
NOAA 19                 
1 33591U 09005A   22314.54297541  .00000208  00000+0  13695-3 0  9990
2 33591  99.1323 351.6463 0014610 135.3636 224.8714 14.12635699709074
GOES 14                 
1 35491U 09033A   22314.53451061 -.00000086  00000+0  00000+0 0  9997
2 35491   0.2531 264.9572 0018467 316.0011 276.9258  1.00272824 48971
METEOR-M 1              
1 35865U 09049A   22313.94169321  .00000164  00000+0  92847-4 0  9999
2 35865  98.5492 279.8529 0002755 140.2563 219.8817 14.22376728682361
DMSP 5D-3 F18 (USA 210) 
1 35951U 09057A   22314.50205868  .00000242  00000+0  15137-3 0  9997
2 35951  98.7411 290.4129 0011883  35.2955 324.9002 14.13585517673749
GOES 15                 
1 36411U 10008A   22314.57641407  .00000063  00000+0  00000+0 0  9997
2 36411   0.2115 280.2817 0003715 275.2221 293.3768  1.00275274 46478
COMS 1                  
1 36744U 10032A   22312.74246872 -.00000338  00000+0  00000+0 0  9993
2 36744   1.4449  91.8149 0001123 150.8839 200.6732  1.00271562 37881
FENGYUN 3B              
1 37214U 10059A   22314.16191841  .00000552  00000+0  31261-3 0  9992
2 37214  99.0926 322.7376 0021273 305.7009  54.2186 14.14274941621555
SUOMI NPP               
1 37849U 11061A   22314.53619792  .00000115  00000+0  75440-4 0  9994
2 37849  98.7455 251.1276 0001012  88.1153  22.4886 14.19559555571917
FENGYUN 2F              
1 38049U 12002A   22313.82213074 -.00000350  00000+0  00000+0 0  9994
2 38049   4.1457  78.5524 0002268 265.6710 112.7560  1.00282152 39693
METEOSAT-10 (MSG-3)     
1 38552U 12035B   22313.44424317  .00000072  00000+0  00000+0 0  9991
2 38552   1.7565  48.4500 0001439 174.0933 355.6912  1.00281676 37668
METOP-B                 
1 38771U 12049A   22314.48196185  .00000162  00000+0  94264-4 0  9993
2 38771  98.7118  12.1551 0000794  57.4691  58.6078 14.21492235526470
FENGYUN 3C              
1 39260U 13052A   22314.19223785  .00000129  00000+0  86293-4 0  9993
2 39260  98.4447 334.8615 0010435 210.0586 149.9990 14.15957825472543
METEOR-M 2              
1 40069U 14037A   22313.19161514 -.00000041  00000+0  33380-6 0  9991
2 40069  98.4281 324.3747 0004615 257.8546 102.2115 14.20725414432412
HIMAWARI-8              
1 40267U 14060A   22313.86716139 -.00000268  00000+0  00000+0 0  9997
2 40267   0.0526 108.0938 0001306 148.3779 245.4013  1.00272904 29579
FENGYUN 2G              
1 40367U 14090A   22313.81625866 -.00000293  00000+0  00000+0 0  9990
2 40367   2.2966  87.9450 0001837 209.0548 145.1141  1.00279756 28809
METEOSAT-11 (MSG-4)     
1 40732U 15034A   22313.86223781  .00000004  00000+0  00000+0 0  9999
2 40732   0.5018 344.3157 0001129 140.5219 234.9071  1.00265966 26834
ELEKTRO-L 2             
1 41105U 15074A   22313.93109807 -.00000107  00000+0  00000+0 0  9993
2 41105   3.3493  86.3841 0002736 130.8343 152.6260  1.00270959 25322
HIMAWARI-9              
1 41836U 16064A   22313.83736652 -.00000268  00000+0  00000+0 0  9995
2 41836   0.0300 165.9349 0001063  84.4388 240.8133  1.00270242 22002
GOES 16                 
1 41866U 16071A   22314.49007763 -.00000240  00000+0  00000+0 0  9993
2 41866   0.0412 272.7526 0001003 358.1920 239.9406  1.00271381 21927
FENGYUN 4A              
1 41882U 16077A   22314.02654361 -.00000320  00000+0  00000+0 0  9997
2 41882   0.1180 289.4712 0004662 117.2220 116.5216  1.00264206 21793
CYGFM05                 
1 41884U 16078A   22313.58506894  .00005909  00000+0  29057-3 0  9991
2 41884  34.9578  17.4317 0014926 310.1104  49.8299 15.17271419326839
CYGFM04                 
1 41885U 16078B   22313.84849747  .00005693  00000+0  27582-3 0  9999
2 41885  34.9504   4.1941 0013141 329.9697  30.0261 15.17822507326929
CYGFM02                 
1 41886U 16078C   22313.83563665  .00005492  00000+0  26575-3 0  9999
2 41886  34.9598   6.5306 0013922 323.4820  36.4942 15.17863078327002
CYGFM01                 
1 41887U 16078D   22313.86893980  .00005298  00000+0  26220-3 0  9990
2 41887  34.9542  18.2883 0015323 311.6059  48.3339 15.17073655326940
CYGFM08                 
1 41888U 16078E   22313.87362684  .00005771  00000+0  28154-3 0  9998
2 41888  34.9513  10.2152 0014365 324.3084  35.6667 15.17563703326990
CYGFM06                 
1 41889U 16078F   22314.20911142  .00004571  00000+0  22148-3 0  9990
2 41889  34.9591   2.8521 0012846 326.4221  33.5676 15.17882010327131
CYGFM07                 
1 41890U 16078G   22313.41069808  .00006182  00000+0  29957-3 0  9992
2 41890  34.9532   6.6999 0012682 324.4345  35.5521 15.17803363327014
CYGFM03                 
1 41891U 16078H   22313.40931435  .00005908  00000+0  28637-3 0  9995
2 41891  34.9564   7.2157 0012203 322.1289  37.8564 15.17805817326853
FENGYUN 3D              
1 43010U 17072A   22312.52724792 -.00000058  00000+0 -65126-5 0  9992
2 43010  98.8318 256.5020 0001056 174.0484 186.0661 14.19108472258209
NOAA 20                 
1 43013U 17073A   22314.54910173  .00000096  00000+0  66113-4 0  9996
2 43013  98.7294 250.8814 0001256  58.8127 301.3172 14.19558055257953
GOES 17                 
1 43226U 18022A   22313.69131962  .00000106  00000+0  00000+0 0  9993
2 43226   0.0129 261.7870 0000600 331.7660 286.8476  1.00271265 17232
FENGYUN 2H              
1 43491U 18050A   22313.84580582 -.00000119  00000+0  00000+0 0  9996
2 43491   1.5136  94.3831 0003460  77.1440 261.0285  1.00270559 16249
METOP-C                 
1 43689U 18087A   22314.49593262  .00000153  00000+0  89885-4 0  9996
2 43689  98.7164  12.1941 0002778 354.3772   5.7374 14.21485838208055
GEO-KOMPSAT-2A          
1 43823U 18100A   22314.02410536 -.00000336  00000+0  00000+0 0  9994
2 43823   0.0563  94.7370 0000560  73.5547  17.8382  1.00270805 14476
METEOR-M2 2             
1 44387U 19038A   22314.19019264 -.00000098  00000+0 -23677-4 0  9998
2 44387  98.7434 273.9310 0001252 161.5278 198.5940 14.23729337174142
FENGYUN 3E              
1 49008U 21062A   22314.25554915  .00000252  00000+0  13970-3 0  9991
2 49008  98.7164 313.9559 0000663 302.3413  57.7691 14.19746375 70003
GOES 18                 
1 51850U 22021A   22312.54367326  .00000102  00000+0  00000+0 0  9993
2 51850   0.0048  46.0293 0002349 187.2312 233.2518  1.00271956  2589
JPSS-2                  
1 54234U 22150A   22314.48609580 -.00000044  00000+0  00000+0 0  9997
2 54234  98.6985 250.8683 0025316 241.9731 270.6063 14.24839776    06
